CCSDS_OMM_VERS = 2.0
CREATION_DATE  = 
ORIGINATOR     = 

OBJECT_NAME    = SDA-1680
OBJECT_ID      = 2025-230S
CENTER_NAME    = EARTH
REF_FRAME      = TEME
TIME_SYSTEM    = UTC
MEAN_ELEMENT_THEORY = SGP/SGP4

EPOCH          = 2025-10-30T17:47:32.218368
MEAN_MOTION    = 13.85186131
ECCENTRICITY   = .0005047
INCLINATION    = 81.3011
RA_OF_ASC_NODE = 64.4775
ARG_OF_PERICENTER = 102.5420
MEAN_ANOMALY   = 257.6302

EPHEMERIS_TYPE = 0
CLASSIFICATION_TYPE = U
NORAD_CAT_ID   = 65990
ELEMENT_SET_NO = 999
REV_AT_EPOCH   = 205
BSTAR          = .23959E-3
MEAN_MOTION_DOT = .284E-5
MEAN_MOTION_DDOT = 0

CCSDS_OMM_VERS = 2.0
CREATION_DATE  = 
ORIGINATOR     = 

OBJECT_NAME    = SDA-1681
OBJECT_ID      = 2025-230T
CENTER_NAME    = EARTH
REF_FRAME      = TEME
TIME_SYSTEM    = UTC
MEAN_ELEMENT_THEORY = SGP/SGP4

EPOCH          = 2025-10-30T19:30:19.001088
MEAN_MOTION    = 13.85266723
ECCENTRICITY   = .0005139
INCLINATION    = 81.3010
RA_OF_ASC_NODE = 64.4078
ARG_OF_PERICENTER = 106.8606
MEAN_ANOMALY   = 253.3115

EPHEMERIS_TYPE = 0
CLASSIFICATION_TYPE = U
NORAD_CAT_ID   = 65991
ELEMENT_SET_NO = 999
REV_AT_EPOCH   = 206
BSTAR          = .30368E-3
MEAN_MOTION_DOT = .357E-5
MEAN_MOTION_DDOT = 0

CCSDS_OMM_VERS = 2.0
CREATION_DATE  = 
ORIGINATOR     = 

OBJECT_NAME    = SDA-1682
OBJECT_ID      = 2025-230U
CENTER_NAME    = EARTH
REF_FRAME      = TEME
TIME_SYSTEM    = UTC
MEAN_ELEMENT_THEORY = SGP/SGP4

EPOCH          = 2025-10-30T17:52:57.993024
MEAN_MOTION    = 13.84831132
ECCENTRICITY   = .0003829
INCLINATION    = 81.3035
RA_OF_ASC_NODE = 64.4866
ARG_OF_PERICENTER = 81.1974
MEAN_ANOMALY   = 278.9617

EPHEMERIS_TYPE = 0
CLASSIFICATION_TYPE = U
NORAD_CAT_ID   = 65992
ELEMENT_SET_NO = 999
REV_AT_EPOCH   = 205
BSTAR          = .22298E-3
MEAN_MOTION_DOT = .263E-5
MEAN_MOTION_DDOT = 0

CCSDS_OMM_VERS = 2.0
CREATION_DATE  = 
ORIGINATOR     = 

OBJECT_NAME    = SDA-1683
OBJECT_ID      = 2025-230V
CENTER_NAME    = EARTH
REF_FRAME      = TEME
TIME_SYSTEM    = UTC
MEAN_ELEMENT_THEORY = SGP/SGP4

EPOCH          = 2025-10-30T17:51:44.241120
MEAN_MOTION    = 13.84911632
ECCENTRICITY   = .000416
INCLINATION    = 81.3026
RA_OF_ASC_NODE = 64.4838
ARG_OF_PERICENTER = 84.0400
MEAN_ANOMALY   = 276.1231

EPHEMERIS_TYPE = 0
CLASSIFICATION_TYPE = U
NORAD_CAT_ID   = 65993
ELEMENT_SET_NO = 999
REV_AT_EPOCH   = 205
BSTAR          = .26407E-3
MEAN_MOTION_DOT = .31E-5
MEAN_MOTION_DDOT = 0

CCSDS_OMM_VERS = 2.0
CREATION_DATE  = 
ORIGINATOR     = 

OBJECT_NAME    = SDA-1684
OBJECT_ID      = 2025-230W
CENTER_NAME    = EARTH
REF_FRAME      = TEME
TIME_SYSTEM    = UTC
MEAN_ELEMENT_THEORY = SGP/SGP4

EPOCH          = 2025-10-30T17:53:57.291936
MEAN_MOTION    = 13.84766669
ECCENTRICITY   = .0003956
INCLINATION    = 81.3009
RA_OF_ASC_NODE = 64.4834
ARG_OF_PERICENTER = 71.6276
MEAN_ANOMALY   = 288.5311

EPHEMERIS_TYPE = 0
CLASSIFICATION_TYPE = U
NORAD_CAT_ID   = 65994
ELEMENT_SET_NO = 999
REV_AT_EPOCH   = 205
BSTAR          = .23157E-3
MEAN_MOTION_DOT = .273E-5
MEAN_MOTION_DDOT = 0

CCSDS_OMM_VERS = 2.0
CREATION_DATE  = 
ORIGINATOR     = 

OBJECT_NAME    = HULIANWANG DIGUI 12A
OBJECT_ID      = 2025-231A
CENTER_NAME    = EARTH
REF_FRAME      = TEME
TIME_SYSTEM    = UTC
MEAN_ELEMENT_THEORY = SGP/SGP4

EPOCH          = 2025-10-30T06:20:44.522016
MEAN_MOTION    = 14.03846454
ECCENTRICITY   = .00064451
INCLINATION    = 50.0007
RA_OF_ASC_NODE = 299.8994
ARG_OF_PERICENTER = 302.8058
MEAN_ANOMALY   = 57.2225

EPHEMERIS_TYPE = 0
CLASSIFICATION_TYPE = U
NORAD_CAT_ID   = 65995
ELEMENT_SET_NO = 999
REV_AT_EPOCH   = 200
BSTAR          = .15694084E-3
MEAN_MOTION_DOT = .97E-6
MEAN_MOTION_DDOT = 0

CCSDS_OMM_VERS = 2.0
CREATION_DATE  = 
ORIGINATOR     = 

OBJECT_NAME    = HULIANWANG DIGUI 12B
OBJECT_ID      = 2025-231B
CENTER_NAME    = EARTH
REF_FRAME      = TEME
TIME_SYSTEM    = UTC
MEAN_ELEMENT_THEORY = SGP/SGP4

EPOCH          = 2025-10-30T06:24:53.148384
MEAN_MOTION    = 14.03877420
ECCENTRICITY   = .00090097
INCLINATION    = 49.9995
RA_OF_ASC_NODE = 299.9133
ARG_OF_PERICENTER = 308.1804
MEAN_ANOMALY   = 51.8289

EPHEMERIS_TYPE = 0
CLASSIFICATION_TYPE = U
NORAD_CAT_ID   = 65996
ELEMENT_SET_NO = 999
REV_AT_EPOCH   = 200
BSTAR          = .15315549E-3
MEAN_MOTION_DOT = .92E-6
MEAN_MOTION_DDOT = 0

CCSDS_OMM_VERS = 2.0
CREATION_DATE  = 
ORIGINATOR     = 

OBJECT_NAME    = HULIANWANG DIGUI 12C
OBJECT_ID      = 2025-231C
CENTER_NAME    = EARTH
REF_FRAME      = TEME
TIME_SYSTEM    = UTC
MEAN_ELEMENT_THEORY = SGP/SGP4

EPOCH          = 2025-10-30T06:19:14.303136
MEAN_MOTION    = 14.03880965
ECCENTRICITY   = .00075581
INCLINATION    = 49.9972
RA_OF_ASC_NODE = 299.8880
ARG_OF_PERICENTER = 307.5829
MEAN_ANOMALY   = 52.4388

EPHEMERIS_TYPE = 0
CLASSIFICATION_TYPE = U
NORAD_CAT_ID   = 65997
ELEMENT_SET_NO = 999
REV_AT_EPOCH   = 200
BSTAR          = .14987627E-3
MEAN_MOTION_DOT = .86E-6
MEAN_MOTION_DDOT = 0

CCSDS_OMM_VERS = 2.0
CREATION_DATE  = 
ORIGINATOR     = 

OBJECT_NAME    = HULIANWANG DIGUI 12D
OBJECT_ID      = 2025-231D
CENTER_NAME    = EARTH
REF_FRAME      = TEME
TIME_SYSTEM    = UTC
MEAN_ELEMENT_THEORY = SGP/SGP4

EPOCH          = 2025-10-30T16:30:12.261888
MEAN_MOTION    = 14.04583078
ECCENTRICITY   = .0006693
INCLINATION    = 49.9999
RA_OF_ASC_NODE = 298.1383
ARG_OF_PERICENTER = 315.1705
MEAN_ANOMALY   = 44.8658

EPHEMERIS_TYPE = 0
CLASSIFICATION_TYPE = U
NORAD_CAT_ID   = 65998
ELEMENT_SET_NO = 999
REV_AT_EPOCH   = 206
BSTAR          = .15213E-3
MEAN_MOTION_DOT = .93E-6
MEAN_MOTION_DDOT = 0

CCSDS_OMM_VERS = 2.0
CREATION_DATE  = 
ORIGINATOR     = 

OBJECT_NAME    = HULIANWANG DIGUI 12E
OBJECT_ID      = 2025-231E
CENTER_NAME    = EARTH
REF_FRAME      = TEME
TIME_SYSTEM    = UTC
MEAN_ELEMENT_THEORY = SGP/SGP4

EPOCH          = 2025-10-30T06:16:27.812064
MEAN_MOTION    = 14.03842232
ECCENTRICITY   = .00082472
INCLINATION    = 50.0018
RA_OF_ASC_NODE = 299.8864
ARG_OF_PERICENTER = 323.3191
MEAN_ANOMALY   = 36.7148

EPHEMERIS_TYPE = 0
CLASSIFICATION_TYPE = U
NORAD_CAT_ID   = 65999
ELEMENT_SET_NO = 999
REV_AT_EPOCH   = 200
BSTAR          = .1404329E-3
MEAN_MOTION_DOT = .71E-6
MEAN_MOTION_DDOT = 0

CCSDS_OMM_VERS = 2.0
CREATION_DATE  = 
ORIGINATOR     = 

OBJECT_NAME    = HULIANWANG DIGUI 12F
OBJECT_ID      = 2025-231F
CENTER_NAME    = EARTH
REF_FRAME      = TEME
TIME_SYSTEM    = UTC
MEAN_ELEMENT_THEORY = SGP/SGP4

EPOCH          = 2025-10-30T06:11:28.777344
MEAN_MOTION    = 14.04996719
ECCENTRICITY   = .00055306
INCLINATION    = 50.0060
RA_OF_ASC_NODE = 299.8757
ARG_OF_PERICENTER = 318.5243
MEAN_ANOMALY   = 41.5242

EPHEMERIS_TYPE = 0
CLASSIFICATION_TYPE = U
NORAD_CAT_ID   = 66000
ELEMENT_SET_NO = 999
REV_AT_EPOCH   = 200
BSTAR          = .14930647E-3
MEAN_MOTION_DOT = .9E-6
MEAN_MOTION_DDOT = 0

CCSDS_OMM_VERS = 2.0
CREATION_DATE  = 
ORIGINATOR     = 

OBJECT_NAME    = HULIANWANG DIGUI 12G
OBJECT_ID      = 2025-231G
CENTER_NAME    = EARTH
REF_FRAME      = TEME
TIME_SYSTEM    = UTC
MEAN_ELEMENT_THEORY = SGP/SGP4

EPOCH          = 2025-10-30T06:12:07.162272
MEAN_MOTION    = 14.03864153
ECCENTRICITY   = .00066713
INCLINATION    = 50.0028
RA_OF_ASC_NODE = 299.8713
ARG_OF_PERICENTER = 331.4215
MEAN_ANOMALY   = 28.6323

EPHEMERIS_TYPE = 0
CLASSIFICATION_TYPE = U
NORAD_CAT_ID   = 66001
ELEMENT_SET_NO = 999
REV_AT_EPOCH   = 200
BSTAR          = .1697695E-3
MEAN_MOTION_DOT = .118E-5
MEAN_MOTION_DDOT = 0

CCSDS_OMM_VERS = 2.0
CREATION_DATE  = 
ORIGINATOR     = 

OBJECT_NAME    = HULIANWANG DIGUI 12H
OBJECT_ID      = 2025-231H
CENTER_NAME    = EARTH
REF_FRAME      = TEME
TIME_SYSTEM    = UTC
MEAN_ELEMENT_THEORY = SGP/SGP4

EPOCH          = 2025-10-30T06:13:42.977280
MEAN_MOTION    = 14.03809541
ECCENTRICITY   = .00076901
INCLINATION    = 50.0067
RA_OF_ASC_NODE = 299.8853
ARG_OF_PERICENTER = 322.0842
MEAN_ANOMALY   = 37.9521

EPHEMERIS_TYPE = 0
CLASSIFICATION_TYPE = U
NORAD_CAT_ID   = 66002
ELEMENT_SET_NO = 999
REV_AT_EPOCH   = 200
BSTAR          = .27823901E-3
MEAN_MOTION_DOT = .29E-5
MEAN_MOTION_DDOT = 0

CCSDS_OMM_VERS = 2.0
CREATION_DATE  = 
ORIGINATOR     = 

OBJECT_NAME    = HULIANWANG DIGUI 12J
OBJECT_ID      = 2025-231J
CENTER_NAME    = EARTH
REF_FRAME      = TEME
TIME_SYSTEM    = UTC
MEAN_ELEMENT_THEORY = SGP/SGP4

EPOCH          = 2025-10-27T23:29:01.125600
MEAN_MOTION    = 14.05796708
ECCENTRICITY   = .00056033
INCLINATION    = 50.0043
RA_OF_ASC_NODE = 309.1429
ARG_OF_PERICENTER = 313.2008
MEAN_ANOMALY   = 46.8428

EPHEMERIS_TYPE = 0
CLASSIFICATION_TYPE = U
NORAD_CAT_ID   = 66003
ELEMENT_SET_NO = 999
REV_AT_EPOCH   = 168
BSTAR          = .17739515E-3
MEAN_MOTION_DOT = .139E-5
MEAN_MOTION_DDOT = 0

CCSDS_OMM_VERS = 2.0
CREATION_DATE  = 
ORIGINATOR     = 

OBJECT_NAME    = CZ-8A R/B
OBJECT_ID      = 2025-231K
CENTER_NAME    = EARTH
REF_FRAME      = TEME
TIME_SYSTEM    = UTC
MEAN_ELEMENT_THEORY = SGP/SGP4

EPOCH          = 2025-10-30T07:05:49.226496
MEAN_MOTION    = 14.30031439
ECCENTRICITY   = .0116699
INCLINATION    = 50.0036
RA_OF_ASC_NODE = 297.3184
ARG_OF_PERICENTER = 134.1727
MEAN_ANOMALY   = 226.8852

EPHEMERIS_TYPE = 0
CLASSIFICATION_TYPE = U
NORAD_CAT_ID   = 66004
ELEMENT_SET_NO = 999
REV_AT_EPOCH   = 204
BSTAR          = .43539282E-4
MEAN_MOTION_DOT = -.44E-6
MEAN_MOTION_DDOT = 0

